,place_id,place_name,place_address,place_lat,place_long,phone_number,website,url,country,adm_lvl_1,adm_lvl_2
2,ChIJxyUwGdWY7jkRlxGKAZk0rOE,Red Cross Office Sukhipur,"Sukhipur 56500, Nepal",26.7051723,86.3391431,+977 984-2828359,unknown,https://maps.google.com/?cid=16261430186288484759,Nepal,Eastern Development Region,Sagarmatha
6,ChIJwV6ztBQh7DkREY-sHn1RR-8,Nepal Red Cross Siraha Branch,"चोहरवा सिराहा माडर रोड, Siraha 56500, Nepal",26.6575276,86.2098372,+977 33-520095,http://www.nrcs.org/,https://maps.google.com/?cid=17241839296238620433,Nepal,Eastern Development Region,Sagarmatha
9,ChIJ43hSxoGV7DkRmcsyBDfShCI,Nepal Red Cross Society,"Bus Station Road, Gaur 44500, Nepal",26.766701,85.2756026,unknown,unknown,https://maps.google.com/?cid=2487344027950828441,Nepal,Central Development Region,Narayani
10,ChIJKeQmAj507zkRheDnwILv0o8,RED CROSS,"Biratnagar 56613, Nepal",26.4644209,87.2863773,unknown,unknown,https://maps.google.com/?cid=10363609037394141317,Nepal,Eastern Development Region,Koshi
11,ChIJhTaOsw1s7zkRWuOqPr0bpUQ,Red-Cross Chowk,"Taltalaiya Rd, Itahari 56705, Nepal",26.6678341,87.2854168,+977 981-7062121,unknown,https://maps.google.com/?cid=4946390265350513498,Nepal,Eastern Development Region,Koshi
13,ChIJHxMyQ6cU7zkR78tcO6PC81E,Red Cross Jhumka,"Ramdhuni Bhasi 56709, Nepal",26.6759421,87.20812719999999,unknown,unknown,https://maps.google.com/?cid=5905277542744247279,Nepal,Eastern Development Region,Koshi
14,ChIJa_RaplkR7zkRMsWuFZa-R4s,Red Cross Building,"Dumraha 56710, Nepal",26.6593315,87.1390467,unknown,unknown,https://maps.google.com/?cid=10036199846436586802,Nepal,Eastern Development Region,Koshi
15,ChIJZVkFlCUX7zkRMFg71oTLpCk,"Nepal Red Cross Society, Prakashpur Subchapter","Prakashpur 56713, Nepal",26.6858737,87.0958607,+977 985-2048785,unknown,https://maps.google.com/?cid=3000747023125927984,Nepal,Eastern Development Region,Koshi
17,ChIJrTJ9Ujl07zkROuV8lhJFgnE,Nepal Red Cross Society Regional Blood Transfusion Service Center,"Rangeli Road, Biratnagar 56613, Nepal",26.4584816,87.2861363,+977 21-423326,unknown,https://maps.google.com/?cid=8179175819394737466,Nepal,Eastern Development Region,Koshi
18,ChIJ7_m9eQeV7DkR1wTyARajJkY,Mudwalwa Red Cross,"Mudwalawa 44500, Nepal",26.7658215,85.3061077,unknown,unknown,https://maps.google.com/?cid=5054906946687206615,Nepal,Central Development Region,Narayani
0,ChIJwSiUkAAZ6zkRcjn9KTXY3uI,Nepal Red Cross Society Kathmandu District Chapter,"Bag Bazar Sadak, Kathmandu 44605, Nepal",27.706125,85.3169209,+977 1-4229410 ext. 4219131,http://ktmredcross.org.np/,https://maps.google.com/?cid=16347741420250806642,Nepal,Central Development Region,Bagmati
1,ChIJaRdMSf0h7DkRn4z330KxWAY,Nepal Redcross Siraha Society,"Siraha, Nepal",26.6575677,86.2098395,+977 33-520095,http://www.nrcs.org/,https://maps.google.com/?cid=457310262961605791,Nepal,Eastern Development Region,Sagarmatha
3,ChIJiXX9S-gZ6zkRtWe4Eg7Fs6M,Nepal Red Cross Society Ambulance Service,"Patan 44600, Nepal",27.673394,85.33588189999999,+977 1-5545666,unknown,https://maps.google.com/?cid=11795988513247750069,Nepal,Central Development Region,Bagmati
7,ChIJ63bbBVQY6zkRkNGOdVICtFs,Nepal Red Cross Society Ganabahal Sub-Chapter,"Hanumansthan Marg, Kathmandu 44600, Nepal",27.6995866,85.3089935,unknown,http://nrcsganabahal.blogspot.com/,https://maps.google.com/?cid=6607909106442228112,Nepal,Central Development Region,Bagmati
9,ChIJsf8uzvu77DkRl_BgcLepwaY,Red Cross Society Subchapter,"Simraungadh 44400, Nepal",26.8883663,85.1158737,unknown,unknown,https://maps.google.com/?cid=12016071886130704535,Nepal,Central Development Region,Narayani
10,ChIJAR2HJ2EY6zkRdqevtjvs5f8,Nepal Red Cross Society National Headquarter,"Red Cross Rd, Kathmandu 44614, Nepal",27.6990573,85.29063909999999,+977 1-4270650,http://www.nrcs.org/,https://maps.google.com/?cid=18439403990550554486,Nepal,Central Development Region,Bagmati
11,ChIJI9wqtekZ6zkRWD-luF3fqNM,Nepal Red Cross Society Lalitpur District Chapter,"बालकुमारी 44700, Nepal",27.6734228,85.3355879,+977 1-5186065,unknown,https://maps.google.com/?cid=15251685731712974680,Nepal,मध्यमाञ्चल,बागमती
12,ChIJFWice28a6zkRy14FiDCNo3E,Nepal Red Cross Society,"Madhyapur Thimi 44800, Nepal",27.675945,85.385576,+977 1-6612266,http://www.nrcs.org/,https://maps.google.com/?cid=8188543787069693643,Nepal,Central Development Region,Bagmati
13,ChIJ9SBz9l6L6zkRA5udv56bT1Q,Nepal Red Cross Society Sindhuli,"Kamalamai 45900, Nepal",27.2034171,85.9123662,unknown,unknown,https://maps.google.com/?cid=6075245528468003587,Nepal,Central Development Region,Janakpur
14,ChIJzyb8WpQZ6zkR_dISDaQ-a9s,International Committee of the Red Cross (ICRC),"मिनभवन मार्ग, Kathmandu 44600, Nepal",27.686093,85.3376749,+977 1-4107285,http://www.icrc.org,https://maps.google.com/?cid=15810799791129154301,Nepal,Central Development Region,Bagmati
15,ChIJy-bW5iPv6zkR8U9uPcEYaz8,"Red Cross Society ,Ramechhap","Manthali 45400, Nepal",27.3813005,86.0584057,unknown,unknown,https://maps.google.com/?cid=4569773465135894513,Nepal,Central Development Region,Janakpur
17,ChIJ85crnTEP6zkRnhGRkUJn2Gk,"Nepal Red Cross, Janagal sub chapter.","Ugratara Janagal 45210, Nepal",27.6326241,85.514217,unknown,unknown,https://maps.google.com/?cid=7626959504559640990,Nepal,Central Development Region,Bagmati
18,ChIJ2bCmoaQa6zkRbXMX9WgcDxo,Nepal Red Cross Society Bhaktapur District Chapter,"Bhaktapur 44800, Nepal",27.6724022,85.4223007,+977 1-6611661,http://www.nrcs.org/,https://maps.google.com/?cid=1877750806750917485,Nepal,Central Development Region,Bagmati
15,ChIJkR9bAaqH5TkRIotJ-LyY3rE,"Nepal Red Cross Society, Hasandaha (नेपाल रेडक्रस सोसाइटी हसन्दह)","Hasandaha 56600, Nepal",26.5799691,87.57419139999999,unknown,unknown,https://maps.google.com/?cid=12816849526929853218,Nepal,unknown,unknown
19,ChIJS2D1v12B5TkRo6Dg4HuIgZA,Red Cross Society Sijuwa Office,"Sijuwa 56600, Nepal",26.4718987,87.6124665,unknown,unknown,https://maps.google.com/?cid=10412753879092469923,Nepal,Eastern Development Region,Koshi
2,ChIJWTyDjniu5TkRXBWyen3l4JM,"Nepal Red Cross Society, Jhapa District Chapter, Bhadrapur","Hospital Rd, Bhadrapur 57200, Nepal",26.5567315,88.0889713,+977 23-520102,http://www.nrcs.org/,https://maps.google.com/?cid=10655769045450757468,Nepal,Eastern Development Region,Mechi
7,ChIJEX30SbJt7zkRAGRDzYnFKGo,Khanar Red Cross,"Koshi Rajmarg, Itahari, Nepal",26.6250755,87.2739764,+977 25-583203,unknown,https://maps.google.com/?cid=7649581162733724672,Nepal,Eastern Development Region,Koshi
8,ChIJj65PZ3FB7zkRTswGmci9k9I,Red Cross Building,"Bijayapur Sadak, Dharan 56700, Nepal",26.8253479,87.28704909999999,+977 25-520258,http://www.nrcs.org/,https://maps.google.com/?cid=15173680238799801422,Nepal,Eastern Development Region,Koshi
9,ChIJGYx9ONyR5TkRI_nKj4Cg6jU,Nepal Red Cross Society,"E - W Hwy, Damak 57217, Nepal",26.6565897,87.70368839999999,+977 23-582101,unknown,https://maps.google.com/?cid=3885094102589176099,Nepal,Eastern Development Region,Mechi
12,ChIJWbb7xa5B7zkRYJwepOeXStA,"Nepal Red Cross BLOOD BANK, BPKIHS","Dharan 56700, Nepal",26.8110264,87.2683891,+977 25-525555,unknown,https://maps.google.com/?cid=15008975729312308320,Nepal,Eastern Development Region,Koshi
15,ChIJ6QLZZlW65TkR21Iavdw-TlU,Nepal Red Cross Society Blood Service- Birtamod,"Devi Panchakanya, Birtamode, 57204, Nepal",26.6414023,87.9740685,+977 23-541883,http://www.nrcs.org/,https://maps.google.com/?cid=6146919659193651931,Nepal,पूर्वाञ्चल विकास क्षेत्र,मेची
16,ChIJZ_6nXZCN5TkRjbUp_DezGOs,Nepal Red Cross Society,"Damak 57200, Nepal",26.7174675,87.6856935,unknown,unknown,https://maps.google.com/?cid=16940487051389285773,Nepal,Eastern Development Region,Mechi
15,ChIJb9pnjHiu5TkRMXJ1o76D5H0,Nepal Red Cross Society,"Hospital Rd, Bhadrapur 57200, Nepal",26.5566964,88.0891232,unknown,unknown,https://maps.google.com/?cid=9071520404240429617,Nepal,Eastern Development Region,Mechi
19,ChIJh14-MRFUkzkROXw0h_35lcg,Nepal Red Cross Society Blood Bank,"Birgunj 44300, Nepal",27.0034691,84.8707275,+977 51-522504,http://www.nrcs.org/,https://maps.google.com/?cid=14453733446405880889,Nepal,Central Development Region,Narayani
1,ChIJV82msEBUkzkRcrwU6ag84tg,Nepal Red Cross Society,"Birgunj 44300, Nepal",27.015248,84.8785552,unknown,unknown,https://maps.google.com/?cid=15628120353091665010,Nepal,Central Development Region,Narayani
12,ChIJnTmbkBWrlDkRTznBX2lV4zk,"Nepal RedCross Society , BiruwaGuthi Branch","Birwaguthi 44300, Nepal",27.1486711,84.9184508,unknown,unknown,https://maps.google.com/?cid=4171271590941636943,Nepal,Central Development Region,Narayani
15,ChIJ_____4_LlDkRFbU1EzVqk1A,Red Cross Building,"Sarikhet Palase 44100, Nepal",27.5380303,84.88805930000001,unknown,unknown,https://maps.google.com/?cid=5806101120798799125,Nepal,Central Development Region,Narayani
14,ChIJ64M7IoCV7DkRopDXrxlheGM,Annex Information Technology,"Gaur-8 Rautahat Nepal Near Red Cross Society, Gaur 44500, Nepal",26.7669256,85.2754041,+977 55-521399,http://aitgaur.webs.com/,https://maps.google.com/?cid=7167585569912361122,Nepal,Central Development Region,Narayani
7,ChIJZ8hNfntD7DkRHw5LteZds2A,Nepal Red Cross Society,"Jaleshwor 45700, Nepal",26.6467011,85.7998002,unknown,unknown,https://maps.google.com/?cid=6968016293937745439,Nepal,Central Development Region,Janakpur
8,ChIJw_YzSvZh6zkRPhuVnhfp7Cw,Nepal Redcross Society,"Chandranigahapur-Gaur Road, Chandrapur 44515, Nepal",27.1124268,85.353545,unknown,unknown,https://maps.google.com/?cid=3237218519826635582,Nepal,Central Development Region,Narayani
8,ChIJQaTnyfJD7DkRnDejUTHxpcY,Laxmi bank near Redcross Jaleshwar,"Mahottari 45700, Nepal",26.6517925,85.8285392,unknown,unknown,https://maps.google.com/?cid=14314112184792332188,Nepal,Central Development Region,Janakpur
14,ChIJP2Vqw3wX7DkRnRUEe9xt8_k,Nepal Red Cross Society And Eye Hospital Sabaila,"Unnamed Road, Sabaila 45600, Nepal",26.8007539,86.09046479999999,unknown,unknown,https://maps.google.com/?cid=18010860128508843421,Nepal,मध्यमाञ्चल,जनकपुर
17,ChIJr3AAR4hz7DkRxz2uNe3ah9o,"Nepal Redcross Society, Lalgadh (नेपाल रेडक्रस सोसाइटी, लालगढ)","Mithila, Nepal",26.9768072,85.9238305,unknown,unknown,https://maps.google.com/?cid=15746795334466944455,Nepal,unknown,unknown
19,ChIJBT5fAGHolDkRmqzd7RaC5MQ,"Nepal Redcross, Khairahani Branch","E - W Hwy, Khairahani 44204, Nepal",27.6108621,84.5668893,unknown,http://redcross.org/,https://maps.google.com/?cid=14187607761115524250,Nepal,Central Development Region,Narayani
9,ChIJ4-440tYf7DkRD1BxDDUq104,REDCROSS SOCIETY,"Mirchaiya 56500, Nepal",26.82378,86.249076,unknown,unknown,https://maps.google.com/?cid=5681055862281555983,Nepal,Eastern Development Region,Sagarmatha
6,ChIJlVJUlDks6TkRvXFQfUPA9SY,"Nepal Red Cross Society, Khotang","Diktel 56200, Nepal",27.2121747,86.79332389999999,unknown,unknown,https://maps.google.com/?cid=2807361338833138109,Nepal,Eastern Development Region,Sagarmatha
9,ChIJ0wYJoxkS7zkRuzgLnN9E3lE,"Redcross, Inaruwa","Inaruwa 56710, Nepal",26.5991771,87.1502478,unknown,unknown,https://maps.google.com/?cid=5899228289088305339,Nepal,Eastern Development Region,Koshi
16,ChIJL45dMdyR5TkRTHPXdBKvagw,Damak Redcross,"Damak-Dhukurpani Route, Damak 57217, Nepal",26.6571038,87.7033309,+977 23-562437,unknown,https://maps.google.com/?cid=894719969791013708,Nepal,पूर्वाञ्चल विकास क्षेत्र,मेची
0,ChIJK1M8MWxs7zkRL35rmsTOiog,ram lal golchha eye hospital (CEC),"redcross, Itahari 56705, Nepal",26.6613116,87.2776189,+977 21-523706,unknown,https://maps.google.com/?cid=9838903679743917615,Nepal,पूर्वाञ्चल विकास क्षेत्र,कोशी
8,ChIJF2gh0h235TkRvouqDMKtvMA,Redcross Budhabare,"Budhabare 57200, Nepal",26.7192449,88.04882339999999,unknown,unknown,https://maps.google.com/?cid=13888166399851531198,Nepal,Eastern Development Region,Mechi
13,ChIJAT9jJZzH6DkRJbhhKOZ9gnE,Nepal Redcross Society Sankhuwasabha,"Khandbari 56900, Nepal",27.3771539,87.2075897,unknown,unknown,https://maps.google.com/?cid=8179238300731684901,Nepal,Eastern Development Region,Koshi
14,ChIJt_bldYbD5TkRzkFWMwM1Zcg,Ilam Redcross,"Ilam 57300, Nepal",26.913044,87.9286319,unknown,unknown,https://maps.google.com/?cid=14440006068095828430,Nepal,Eastern Development Region,Mechi
